STARLETTE               
1 07646U 75010A   21030.58928057 -.00000118  00000+0  21382-4 0  9996
2 07646  49.8237 294.9856 0205800  56.4347 305.6012 13.82308640322925
LAGEOS 1                
1 08820U 76039A   21030.60712274  .00000025  00000+0  00000+0 0  9993
2 08820 109.8158 226.7241 0044955   1.8115  65.0545  6.38664640788055
AJISAI (EGS)            
1 16908U 86061A   21030.55024689 -.00000091  00000+0  47688-4 0  9997
2 16908  50.0102  65.3970 0011370 221.9136 292.9172 12.44493143235973
COSMOS 1989 (ETALON 1)  
1 19751U 89001C   21030.41283220  .00000028  00000+0  00000+0 0  9997
2 19751  64.2113 139.6784 0023030 211.5045 149.2601  2.13156205249515
COSMOS 2024 (ETALON 2)  
1 20026U 89039C   21030.46355759 -.00000030  00000+0  00000+0 0  9991
2 20026  65.5309  17.4288 0018341 220.4396   5.2277  2.13204229246632
LAGEOS 2                
1 22195U 92070B   21030.64463348 -.00000009  00000+0  00000+0 0  9999
2 22195  52.6636  67.5679 0137425  48.8408 302.4411  6.47293721668414
STELLA                  
1 22824U 93061B   21030.60084799 -.00000050  00000+0 -11704-5 0  9990
2 22824  98.9749  33.2536 0006664 161.5082 313.7065 14.27383126424645
LARES                   
1 38077U 12006A   21030.42722210  .00000043  00000+0  50310-3 0  9998
2 38077  69.4922  46.5221 0006240  99.9830 260.1952 12.54931893410790
